start=new Date('2023-04-02T00:00:00.000Z').valueOf();
sats=[{"CLASSIFICATION_TYPE":"U","TLE_LINE2":"2 53656  97.6540 333.8836 0005618  84.9766 275.2099 15.01248386 32256","COUNTRY_CODE":"US","EPHEMERIS_TYPE":"0","PERIOD":"95.920","MEAN_MOTION":"15.01248386","MEAN_ELEMENT_THEORY":"SGP4","MEAN_ANOMALY":"275.2099","GP_ID":"229279918","PERIAPSIS":"559.148","BSTAR":"0.00017733000000","REF_FRAME":"TEME","SEMIMAJOR_AXIS":"6941.183","OBJECT_TYPE":"PAYLOAD","OBJECT_ID":"2022-105J","SITE":"AFWTR","INCLINATION":"97.6540","CENTER_NAME":"EARTH","APOAPSIS":"566.947","EPOCH":"2023-04-01T17:24:29.672352","REV_AT_EPOCH":"3225","NORAD_CAT_ID":"53656","FILE":"3877516","ECCENTRICITY":"0.00056180","DECAY_DATE":null,"ELEMENT_SET_NO":"999","TLE_LINE1":"1 53656U 22105J   23091.72534343  .00002219  00000-0  17733-3 0  9999","RCS_SIZE":"LARGE","ARG_OF_PERICENTER":"84.9766","OBJECT_NAME":"STARLINK-4466","LAUNCH_DATE":"2022-08-31","TIME_SYSTEM":"UTC","MEAN_MOTION_DOT":"0.00002219","RA_OF_ASC_NODE":"333.8836","MEAN_MOTION_DDOT":"0.0000000000000"},{"LAUNCH_DATE":"2022-08-31","DECAY_DATE":null,"ELEMENT_SET_NO":"999","RCS_SIZE":"LARGE","TLE_LINE1":"1 53657U 22105K   23091.93061033 -.00000161  00000-0 -79326-5 0  9998","OBJECT_NAME":"STARLINK-4469","ARG_OF_PERICENTER":"70.5121","MEAN_MOTION_DDOT":"0.0000000000000","TIME_SYSTEM":"UTC","MEAN_MOTION_DOT":"-0.00000161","RA_OF_ASC_NODE":"334.0890","GP_ID":"229281169","PERIAPSIS":"558.791","BSTAR":"-0.00000793260000","REF_FRAME":"TEME","SEMIMAJOR_AXIS":"6941.149","OBJECT_ID":"2022-105K","OBJECT_TYPE":"PAYLOAD","PERIOD":"95.919","COUNTRY_CODE":"US","TLE_LINE2":"2 53657  97.6549 334.0890 0006085  70.5121 289.6760 15.01259175 32289","CLASSIFICATION_TYPE":"U","EPHEMERIS_TYPE":"0","MEAN_ELEMENT_THEORY":"SGP4","MEAN_MOTION":"15.01259175","MEAN_ANOMALY":"289.6760","NORAD_CAT_ID":"53657","REV_AT_EPOCH":"3228","FILE":"3877516","ECCENTRICITY":"0.00060850","SITE":"AFWTR","APOAPSIS":"567.238","INCLINATION":"97.6549","CENTER_NAME":"EARTH","EPOCH":"2023-04-01T22:20:04.732512"},{"OBJECT_ID":"2022-105L","OBJECT_TYPE":"PAYLOAD","SEMIMAJOR_AXIS":"6941.174","REF_FRAME":"TEME","BSTAR":"0.00023540000000","GP_ID":"229281419","PERIAPSIS":"559.366","MEAN_ANOMALY":"280.8714","MEAN_ELEMENT_THEORY":"SGP4","MEAN_MOTION":"15.01251195","PERIOD":"95.920","COUNTRY_CODE":"US","TLE_LINE2":"2 53658  97.6544 333.8833 0005291  79.3106 280.8714 15.01251195 32250","CLASSIFICATION_TYPE":"U","EPHEMERIS_TYPE":"0","ECCENTRICITY":"0.00052910","FILE":"3877516","NORAD_CAT_ID":"53658","REV_AT_EPOCH":"3225","EPOCH":"2023-04-01T17:24:08.805024","APOAPSIS":"566.712","INCLINATION":"97.6544","CENTER_NAME":"EARTH","SITE":"AFWTR","LAUNCH_DATE":"2022-08-31","OBJECT_NAME":"STARLINK-4452","ARG_OF_PERICENTER":"79.3106","RCS_SIZE":"LARGE","TLE_LINE1":"1 53658U 22105L   23091.72510191  .00002966  00000-0  23540-3 0  9998","DECAY_DATE":null,"ELEMENT_SET_NO":"999","MEAN_MOTION_DDOT":"0.0000000000000","RA_OF_ASC_NODE":"333.8833","MEAN_MOTION_DOT":"0.00002966","TIME_SYSTEM":"UTC"},{"SEMIMAJOR_AXIS":"6941.156","OBJECT_ID":"2022-105M","OBJECT_TYPE":"PAYLOAD","GP_ID":"229279668","PERIAPSIS":"559.099","BSTAR":"0.00054074000000","REF_FRAME":"TEME","MEAN_ANOMALY":"282.1424","EPHEMERIS_TYPE":"0","TLE_LINE2":"2 53659  97.6545 334.0833 0005650  78.0433 282.1424 15.01257029 32281","COUNTRY_CODE":"US","CLASSIFICATION_TYPE":"U","PERIOD":"95.920","MEAN_MOTION":"15.01257029","MEAN_ELEMENT_THEORY":"SGP4","FILE":"3877516","ECCENTRICITY":"0.00056500","REV_AT_EPOCH":"3228","NORAD_CAT_ID":"53659","INCLINATION":"97.6545","CENTER_NAME":"EARTH","APOAPSIS":"566.943","EPOCH":"2023-04-01T22:14:45.163968","SITE":"AFWTR","LAUNCH_DATE":"2022-08-31","ARG_OF_PERICENTER":"78.0433","OBJECT_NAME":"STARLINK-4463","DECAY_DATE":null,"ELEMENT_SET_NO":"999","RCS_SIZE":"LARGE","TLE_LINE1":"1 53659U 22105M   23091.92691162  .00006895  00000-0  54074-3 0  9990","MEAN_MOTION_DDOT":"0.0000000000000","TIME_SYSTEM":"UTC","MEAN_MOTION_DOT":"0.00006895","RA_OF_ASC_NODE":"334.0833"},{"LAUNCH_DATE":"2022-08-31","RCS_SIZE":"LARGE","TLE_LINE1":"1 53660U 22105N   23091.91949954  .00009186  00000-0  71893-3 0  9990","ELEMENT_SET_NO":"999","DECAY_DATE":null,"ARG_OF_PERICENTER":"95.5433","OBJECT_NAME":"STARLINK-4473","MEAN_MOTION_DDOT":"0.0000000000000","MEAN_MOTION_DOT":"0.00009186","RA_OF_ASC_NODE":"334.0752","TIME_SYSTEM":"UTC","BSTAR":"0.00071893000000","REF_FRAME":"TEME","GP_ID":"229280419","PERIAPSIS":"560.688","OBJECT_TYPE":"PAYLOAD","OBJECT_ID":"2022-105N","SEMIMAJOR_AXIS":"6941.165","MEAN_MOTION":"15.01254072","MEAN_ELEMENT_THEORY":"SGP4","EPHEMERIS_TYPE":"0","TLE_LINE2":"2 53660  97.6557 334.0752 0003374  95.5433 264.6176 15.01254072 32285","COUNTRY_CODE":"US","CLASSIFICATION_TYPE":"U","PERIOD":"95.920","MEAN_ANOMALY":"264.6176","REV_AT_EPOCH":"3228","NORAD_CAT_ID":"53660","ECCENTRICITY":"0.00033740","FILE":"3877516","SITE":"AFWTR","EPOCH":"2023-04-01T22:04:04.760256","INCLINATION":"97.6557","CENTER_NAME":"EARTH","APOAPSIS":"565.372"},{"LAUNCH_DATE":"2022-08-31","RCS_SIZE":"LARGE","TLE_LINE1":"1 53661U 22105P   23091.92320254  .00000473  00000-0  41446-4 0  9990","DECAY_DATE":null,"ELEMENT_SET_NO":"999","OBJECT_NAME":"STARLINK-4472","ARG_OF_PERICENTER":"86.1194","MEAN_MOTION_DDOT":"0.0000000000000","RA_OF_ASC_NODE":"334.0774","MEAN_MOTION_DOT":"0.00000473","TIME_SYSTEM":"UTC","REF_FRAME":"TEME","BSTAR":"0.00004144600000","PERIAPSIS":"559.317","GP_ID":"229280669","OBJECT_ID":"2022-105P","OBJECT_TYPE":"PAYLOAD","SEMIMAJOR_AXIS":"6941.158","MEAN_ELEMENT_THEORY":"SGP4","MEAN_MOTION":"15.01256438","PERIOD":"95.920","EPHEMERIS_TYPE":"0","TLE_LINE2":"2 53661  97.6547 334.0774 0005339  86.1194 274.0641 15.01256438 32282","COUNTRY_CODE":"US","CLASSIFICATION_TYPE":"U","MEAN_ANOMALY":"274.0641","NORAD_CAT_ID":"53661","REV_AT_EPOCH":"3228","ECCENTRICITY":"0.00053390","FILE":"3877516","SITE":"AFWTR","EPOCH":"2023-04-01T22:09:24.699456","APOAPSIS":"566.729","INCLINATION":"97.6547","CENTER_NAME":"EARTH"},{"SEMIMAJOR_AXIS":"6941.146","OBJECT_TYPE":"PAYLOAD","OBJECT_ID":"2022-105Q","GP_ID":"229280919","PERIAPSIS":"561.980","BSTAR":"0.00016511000000","REF_FRAME":"TEME","MEAN_ANOMALY":"264.3050","TLE_LINE2":"2 53662  97.6554 334.0707 0001486  95.8343 264.3050 15.01260238 32288","COUNTRY_CODE":"US","EPHEMERIS_TYPE":"0","CLASSIFICATION_TYPE":"U","PERIOD":"95.919","MEAN_MOTION":"15.01260238","MEAN_ELEMENT_THEORY":"SGP4","FILE":"3877516","ECCENTRICITY":"0.00014860","REV_AT_EPOCH":"3228","NORAD_CAT_ID":"53662","INCLINATION":"97.6554","CENTER_NAME":"EARTH","APOAPSIS":"564.043","EPOCH":"2023-04-01T21:58:44.442624","SITE":"AFWTR","LAUNCH_DATE":"2022-08-31","ARG_OF_PERICENTER":"95.8343","OBJECT_NAME":"STARLINK-4357","ELEMENT_SET_NO":"999","DECAY_DATE":null,"RCS_SIZE":"LARGE","TLE_LINE1":"1 53662U 22105Q   23091.91579216  .00002062  00000-0  16511-3 0  9994","MEAN_MOTION_DDOT":"0.0000000000000","TIME_SYSTEM":"UTC","RA_OF_ASC_NODE":"334.0707","MEAN_MOTION_DOT":"0.00002062"},{"ELEMENT_SET_NO":"999","DECAY_DATE":null,"RCS_SIZE":"LARGE","TLE_LINE1":"1 53663U 22105R   23091.92135127  .00000676  00000-0  57206-4 0  9991","OBJECT_NAME":"STARLINK-4457","ARG_OF_PERICENTER":"84.7247","LAUNCH_DATE":"2022-08-31","TIME_SYSTEM":"UTC","RA_OF_ASC_NODE":"334.0774","MEAN_MOTION_DOT":"0.00000676","MEAN_MOTION_DDOT":"0.0000000000000","PERIOD":"95.920","TLE_LINE2":"2 53663  97.6553 334.0774 0004327  84.7247 275.4471 15.01258481 32286","CLASSIFICATION_TYPE":"U","COUNTRY_CODE":"US","EPHEMERIS_TYPE":"0","MEAN_ELEMENT_THEORY":"SGP4","MEAN_MOTION":"15.01258481","MEAN_ANOMALY":"275.4471","GP_ID":"229280169","PERIAPSIS":"560.013","BSTAR":"0.00005720600000","REF_FRAME":"TEME","SEMIMAJOR_AXIS":"6941.152","OBJECT_ID":"2022-105R","OBJECT_TYPE":"PAYLOAD","SITE":"AFWTR","APOAPSIS":"566.020","INCLINATION":"97.6553","CENTER_NAME":"EARTH","EPOCH":"2023-04-01T22:06:44.749728","NORAD_CAT_ID":"53663","REV_AT_EPOCH":"3228","FILE":"3877516","ECCENTRICITY":"0.00043270"},{"SEMIMAJOR_AXIS":"6941.102","OBJECT_TYPE":"PAYLOAD","OBJECT_ID":"2022-105S","GP_ID":"229279919","PERIAPSIS":"561.973","BSTAR":"0.00112410000000","REF_FRAME":"TEME","MEAN_ANOMALY":"253.2308","PERIOD":"95.918","TLE_LINE2":"2 53664  97.6553 334.0676 0001432 106.9074 253.2308 15.01274563 32289","COUNTRY_CODE":"US","CLASSIFICATION_TYPE":"U","EPHEMERIS_TYPE":"0","MEAN_ELEMENT_THEORY":"SGP4","MEAN_MOTION":"15.01274563","FILE":"3877516","ECCENTRICITY":"0.00014320","NORAD_CAT_ID":"53664","REV_AT_EPOCH":"3228","APOAPSIS":"563.961","CENTER_NAME":"EARTH","INCLINATION":"97.6553","EPOCH":"2023-04-01T21:56:05.378496","SITE":"AFWTR","LAUNCH_DATE":"2022-08-31","OBJECT_NAME":"STARLINK-4471","ARG_OF_PERICENTER":"106.9074","ELEMENT_SET_NO":"999","DECAY_DATE":null,"TLE_LINE1":"1 53664U 22105S   23091.91395114  .00014414  00000-0  11241-2 0  9997","RCS_SIZE":"LARGE","MEAN_MOTION_DDOT":"0.0000000000000","TIME_SYSTEM":"UTC","MEAN_MOTION_DOT":"0.00014414","RA_OF_ASC_NODE":"334.0676"},{"LAUNCH_DATE":"2022-08-31","OBJECT_NAME":"STARLINK-4334","ARG_OF_PERICENTER":"106.7739","TLE_LINE1":"1 53665U 22105T   23091.91788802  .00000771  00000-0  64589-4 0  9994","RCS_SIZE":"LARGE","DECAY_DATE":null,"ELEMENT_SET_NO":"999","MEAN_MOTION_DDOT":"0.0000000000000","MEAN_MOTION_DOT":"0.00000771","RA_OF_ASC_NODE":"334.0737","TIME_SYSTEM":"UTC","OBJECT_TYPE":"PAYLOAD","OBJECT_ID":"2022-105T","SEMIMAJOR_AXIS":"6941.157","REF_FRAME":"TEME","BSTAR":"0.00006458900000","GP_ID":"229281170","PERIAPSIS":"561.958","MEAN_ANOMALY":"253.3654","MEAN_ELEMENT_THEORY":"SGP4","MEAN_MOTION":"15.01256608","PERIOD":"95.920","TLE_LINE2":"2 53665  97.6556 334.0737 0001534 106.7739 253.3654 15.01256608 32285","COUNTRY_CODE":"US","CLASSIFICATION_TYPE":"U","EPHEMERIS_TYPE":"0","ECCENTRICITY":"0.00015340","FILE":"3877516","NORAD_CAT_ID":"53665","REV_AT_EPOCH":"3228","EPOCH":"2023-04-01T22:01:45.524928","APOAPSIS":"564.087","INCLINATION":"97.6556","CENTER_NAME":"EARTH","SITE":"AFWTR"}];
